COSMOS 2419 (714)       
1 28915U 05050A   17236.18023397 -.00000026  00000-0  00000-0 0  9996
2 28915  65.5297  63.5624 0016109 358.6466  45.7248  2.13106810 90788
COSMOS 2425 (716)       
1 29670U 06062A   17236.66253877 -.00000029  00000-0  10000-3 0  9997
2 29670  65.4264 302.5543 0019632 341.7379 124.3698  2.13104973 82991
COSMOS 2426 (717)       
1 29671U 06062B   17236.62891536 -.00000029  00000-0  10000-3 0  9994
2 29671  65.4444 302.6478 0019144 169.0997 129.0395  2.13102965 82990
COSMOS 2424 (715)       
1 29672U 06062C   17236.51223171 -.00000028  00000-0  10000-3 0  9996
2 29672  65.4284 302.5721 0018505 168.1985 215.5938  2.13102398 82994
COSMOS 2433 (720)       
1 32275U 07052A   17236.74446963 -.00000028  00000-0  10000-3 0  9990
2 32275  65.5451  63.3226 0000456 216.5641 144.3880  2.13104645 76512
COSMOS 2432 (719)       
1 32276U 07052B   17236.75755064 -.00000028  00000-0  10000-3 0  9997
2 32276  65.5569  63.3944 0010480 346.7218 337.0122  2.13104024 76504
COSMOS 2434 (721)       
1 32393U 07065A   17236.29192463 -.00000026  00000-0  00000-0 0  9992
2 32393  65.0426 301.6836 0004369 140.3732 122.6685  2.13102994 75209
COSMOS 2436 (723)       
1 32395U 07065C   17236.23013409 -.00000026  00000-0  10000-3 0  9994
2 32395  65.0523 301.7331 0013069 355.9019 268.7649  2.13104339 75138
COSMOS 2443 (725)       
1 33379U 08046B   17236.14726326 -.00000027  00000-0  00000+0 0  9992
2 33379  65.4750  62.7194 0012636 175.3862 346.6650  2.13099566 69368
COSMOS 2456 (730)       
1 36111U 09070A   17236.56530677  .00000016  00000-0  00000-0 0  9993
2 36111  64.1817 181.2384 0005929 302.3900 341.7172  2.13102972 59871
COSMOS 2457 (733)       
1 36112U 09070B   17236.66324579  .00000016  00000-0  00000+0 0  9996
2 36112  64.1641 181.1523 0006077 186.8941 300.5985  2.13101749 59883
COSMOS 2458 (734)       
1 36113U 09070C   17236.53127616  .00000015  00000-0  10000-3 0  9990
2 36113  64.1694 181.1656 0002415 310.6240 123.6835  2.13101903 59880
COSMOS 2459 (731)       
1 36400U 10007A   17236.07895457 -.00000027  00000-0  10000-3 0  9999
2 36400  65.4527  62.4423 0027005 357.2336  74.6804  2.13102254 58224
COSMOS 2461 (735)       
1 36401U 10007B   17236.35197419 -.00000028  00000-0  10000-3 0  9995
2 36401  65.4457  62.4113 0008772  74.0532 117.9310  2.13102267 58222
COSMOS 2460 (732)       
1 36402U 10007C   17236.28408262 -.00000028  00000-0  10000-3 0  9999
2 36402  65.4352  62.3835 0002394  88.1605  92.8672  2.13101692 58221
COSMOS 2465 (737)       
1 37138U 10041B   17236.46352557 -.00000028  00000-0  00000-0 0  9995
2 37138  64.6402 301.6306 0036579 171.4080 267.1860  2.13097506 54301
COSMOS 2464 (736)       
1 37139U 10041C   17236.19550317 -.00000026  00000-0  00000+0 0  9997
2 37139  64.6474 301.6408 0021129  11.2097  45.5966  2.13102709 54293
COSMOS 2471 (701K)      
1 37372U 11009A   17236.60916398 -.00000029  00000-0  00000-0 0  9996
2 37372  65.4353  62.3205 0006796 224.6314 343.3785  2.13107665 50502
COSMOS 2474 (742)       
1 37829U 11055A   17236.77363361  .00000018  00000-0  00000+0 0  9994
2 37829  64.5062 181.8245 0010247 253.0395  50.3731  2.13101946 45874
COSMOS 2476 (744)       
1 37867U 11064A   17236.63251756  .00000017  00000-0  00000+0 0  9994
2 37867  64.4859 181.8989 0019502 245.9470 355.1669  2.13101981 45225
COSMOS 2477 (745)       
1 37868U 11064B   17236.13709753  .00000013  00000-0  00000+0 0  9991
2 37868  64.4949 181.9611 0017401 247.3965 152.7305  2.13101881 45171
COSMOS 2475 (743)       
1 37869U 11064C   17236.38171189  .00000015  00000-0  00000-0 0  9998
2 37869  64.5019 181.9445 0022217 270.8109 273.4321  2.13102186 45187
COSMOS 2485 (747)       
1 39155U 13019A   17236.63636486  .00000017  00000-0  00000+0 0  9995
2 39155  64.6557 181.9438 0019888 240.9990  48.0644  2.13102086 33699
COSMOS 2492 (754)       
1 39620U 14012A   17236.41401976 -.00000029  00000-0  10000-3 0  9995
2 39620  65.3269  62.3074 0013773 339.4263 173.3577  2.13103435 26649
COSMOS 2500 (755)       
1 40001U 14032A   17236.14028828 -.00000028  00000-0  00000+0 0  9997
2 40001  65.2662  62.3090 0005400 183.7596 341.9345  2.13102784 24858
COSMOS 2501 (702K)      
1 40315U 14075A   17236.32322426 -.00000030  00000-0  00000-0 0  9997
2 40315  64.3745 302.9552 0016634 208.3559 262.8608  2.13098695 21268
COSMOS 2514 (751)       
1 41330U 16008A   17236.57631141 -.00000030  00000-0  00000-0 0  9997
2 41330  65.0674  62.4197 0008108 202.8225 117.5335  2.13103390 12020
COSMOS 2516 (753)       
1 41554U 16032A   17236.63654231 -.00000031  00000-0  00000+0 0  9994
2 41554  64.5934 302.7259 0013855 218.5607  40.2351  2.13101607  9635
